{
  "type": "FeatureCollection",
  "features": [
    {
      "type": "Feature",
      "properties": {
        "norad_id": 39773,
        "name": "EUTELSAT 3B",
        "group": "eutelsat",
        "lat": -0.05033141662418406,
        "lon": -47.85760440223463,
        "alt_km": 35783.20109487153,
        "timestamp": "2025-12-15T14:57:57.511304+00:00",
        "meta_object_name": "EUTELSAT 3B",
        "meta_object_id": "2014-030A",
        "meta_epoch": "2025-12-14T22:09:38.644416",
        "meta_mean_motion": 1.00271327,
        "meta_eccentricity": 0.00043919,
        "meta_inclination": 0.0603,
        "meta_ra_of_asc_node": 354.1693,
        "meta_arg_of_pericenter": 236.938,
        "meta_mean_anomaly": 188.2286,
        "meta_ephemeris_type": 0,
        "meta_classification_type": "U",
        "meta_norad_cat_id": 39773,
        "meta_element_set_no": 999,
        "meta_rev_at_epoch": 4221,
        "meta_bstar": 0,
        "meta_mean_motion_dot": 4e-07,
        "meta_mean_motion_ddot": 0,
        "tle_line1": "1 39773U 14030A   25348.92336394  .00000040  00000+0  00000+0 0  9990",
        "tle_line2": "2 39773   0.0603 354.1693 0004391 236.9380 188.2286  1.00271327 42216"
      },
      "geometry": {
        "type": "Point",
        "coordinates": [
          -47.85760440223463,
          -0.05033141662418406
        ]
      }
    },
    {
      "type": "Feature",
      "properties": {
        "norad_id": 40425,
        "name": "EUTELSAT 115 WEST B",
        "group": "eutelsat",
        "lat": -0.017610179753191155,
        "lon": -165.90036524784375,
        "alt_km": 35786.79690938922,
        "timestamp": "2025-12-15T14:57:57.511315+00:00",
        "meta_object_name": "EUTELSAT 115 WEST B",
        "meta_object_id": "2015-010B",
        "meta_epoch": "2025-12-14T09:56:38.487840",
        "meta_mean_motion": 1.00269432,
        "meta_eccentricity": 1.048e-05,
        "meta_inclination": 0.0412,
        "meta_ra_of_asc_node": 162.7061,
        "meta_arg_of_pericenter": 133.9502,
        "meta_mean_anomaly": 180.944,
        "meta_ephemeris_type": 0,
        "meta_classification_type": "U",
        "meta_norad_cat_id": 40425,
        "meta_element_set_no": 999,
        "meta_rev_at_epoch": 3954,
        "meta_bstar": 0,
        "meta_mean_motion_dot": -6e-08,
        "meta_mean_motion_ddot": 0,
        "tle_line1": "1 40425U 15010B   25348.41433435 -.00000006  00000+0  00000+0 0  9996",
        "tle_line2": "2 40425   0.0412 162.7061 0000104 133.9502 180.9440  1.00269432 39549"
      },
      "geometry": {
        "type": "Point",
        "coordinates": [
          -165.90036524784375,
          -0.017610179753191155
        ]
      }
    },
    {
      "type": "Feature",
      "properties": {
        "norad_id": 40875,
        "name": "EUTELSAT 8 WEST B",
        "group": "eutelsat",
        "lat": -0.07725872984684137,
        "lon": -58.95346237569127,
        "alt_km": 35771.61400112461,
        "timestamp": "2025-12-15T14:57:57.511326+00:00",
        "meta_object_name": "EUTELSAT 8 WEST B",
        "meta_object_id": "2015-039B",
        "meta_epoch": "2025-12-14T21:56:27.227328",
        "meta_mean_motion": 1.00271775,
        "meta_eccentricity": 0.00042539,
        "meta_inclination": 0.0671,
        "meta_ra_of_asc_node": 13.0435,
        "meta_arg_of_pericenter": 251.5034,
        "meta_mean_anomaly": 140.406,
        "meta_ephemeris_type": 0,
        "meta_classification_type": "U",
        "meta_norad_cat_id": 40875,
        "meta_element_set_no": 999,
        "meta_rev_at_epoch": 3780,
        "meta_bstar": 0,
        "meta_mean_motion_dot": -4.6e-07,
        "meta_mean_motion_ddot": 0,
        "tle_line1": "1 40875U 15039B   25348.91420402 -.00000046  00000+0  00000+0 0  9995",
        "tle_line2": "2 40875   0.0671  13.0435 0004253 251.5034 140.4060  1.00271775 37803"
      },
      "geometry": {
        "type": "Point",
        "coordinates": [
          -58.95346237569127,
          -0.07725872984684137
        ]
      }
    },
    {
      "type": "Feature",
      "properties": {
        "norad_id": 41310,
        "name": "EUTELSAT 9B",
        "group": "eutelsat",
        "lat": -0.05077039451281253,
        "lon": -41.967456242958576,
        "alt_km": 35772.91497361668,
        "timestamp": "2025-12-15T14:57:57.511338+00:00",
        "meta_object_name": "EUTELSAT 9B",
        "meta_object_id": "2016-005A",
        "meta_epoch": "2025-12-14T22:09:38.644416",
        "meta_mean_motion": 1.00270953,
        "meta_eccentricity": 0.00045537,
        "meta_inclination": 0.0503,
        "meta_ra_of_asc_node": 67.4635,
        "meta_arg_of_pericenter": 204.5009,
        "meta_mean_anomaly": 153.2743,
        "meta_ephemeris_type": 0,
        "meta_classification_type": "U",
        "meta_norad_cat_id": 41310,
        "meta_element_set_no": 999,
        "meta_rev_at_epoch": 3626,
        "meta_bstar": 0,
        "meta_mean_motion_dot": 8.1e-07,
        "meta_mean_motion_ddot": 0,
        "tle_line1": "1 41310U 16005A   25348.92336394  .00000081  00000+0  00000+0 0  9999",
        "tle_line2": "2 41310   0.0503  67.4635 0004553 204.5009 153.2743  1.00270953 36266"
      },
      "geometry": {
        "type": "Point",
        "coordinates": [
          -41.967456242958576,
          -0.05077039451281253
        ]
      }
    },
    {
      "type": "Feature",
      "properties": {
        "norad_id": 41382,
        "name": "EUTELSAT 65 WEST A",
        "group": "eutelsat",
        "lat": -0.05833617389847001,
        "lon": -116.21075551264036,
        "alt_km": 35777.3118140857,
        "timestamp": "2025-12-15T14:57:57.511354+00:00",
        "meta_object_name": "EUTELSAT 65 WEST A",
        "meta_object_id": "2016-014A",
        "meta_epoch": "2025-12-14T21:40:06.293568",
        "meta_mean_motion": 1.00271321,
        "meta_eccentricity": 0.00024202,
        "meta_inclination": 0.0541,
        "meta_ra_of_asc_node": 19.4099,
        "meta_arg_of_pericenter": 253.2025,
        "meta_mean_anomaly": 71.0289,
        "meta_ephemeris_type": 0,
        "meta_classification_type": "U",
        "meta_norad_cat_id": 41382,
        "meta_element_set_no": 999,
        "meta_rev_at_epoch": 3568,
        "meta_bstar": 0,
        "meta_mean_motion_dot": -2.56e-06,
        "meta_mean_motion_ddot": 0,
        "tle_line1": "1 41382U 16014A   25348.90285062 -.00000256  00000+0  00000+0 0  9996",
        "tle_line2": "2 41382   0.0541  19.4099 0002420 253.2025  71.0289  1.00271321 35685"
      },
      "geometry": {
        "type": "Point",
        "coordinates": [
          -116.21075551264036,
          -0.05833617389847001
        ]
      }
    },
    {
      "type": "Feature",
      "properties": {
        "norad_id": 41589,
        "name": "EUTELSAT 117 WEST B",
        "group": "eutelsat",
        "lat": 0.007750638259972728,
        "lon": -167.99718780475771,
        "alt_km": 35786.202052973145,
        "timestamp": "2025-12-15T14:57:57.511376+00:00",
        "meta_object_name": "EUTELSAT 117 WEST B",
        "meta_object_id": "2016-038B",
        "meta_epoch": "2025-12-14T21:25:22.704096",
        "meta_mean_motion": 1.00268448,
        "meta_eccentricity": 1.882e-05,
        "meta_inclination": 0.0096,
        "meta_ra_of_asc_node": 155.7449,
        "meta_arg_of_pericenter": 30.2857,
        "meta_mean_anomaly": 102.1261,
        "meta_ephemeris_type": 0,
        "meta_classification_type": "U",
        "meta_norad_cat_id": 41589,
        "meta_element_set_no": 999,
        "meta_rev_at_epoch": 3481,
        "meta_bstar": 0,
        "meta_mean_motion_dot": 9e-08,
        "meta_mean_motion_ddot": 0,
        "tle_line1": "1 41589U 16038B   25348.89262389  .00000009  00000+0  00000+0 0  9991",
        "tle_line2": "2 41589   0.0096 155.7449 0000188  30.2857 102.1261  1.00268448 34813"
      },
      "geometry": {
        "type": "Point",
        "coordinates": [
          -167.99718780475771,
          0.007750638259972728
        ]
      }
    },
    {
      "type": "Feature",
      "properties": {
        "norad_id": 42741,
        "name": "EUTELSAT 172B",
        "group": "eutelsat",
        "lat": 0.015819038156107065,
        "lon": 120.97556684450643,
        "alt_km": 35786.21525571032,
        "timestamp": "2025-12-15T14:57:57.511387+00:00",
        "meta_object_name": "EUTELSAT 172B",
        "meta_object_id": "2017-029B",
        "meta_epoch": "2025-12-14T21:05:09.641184",
        "meta_mean_motion": 1.00269602,
        "meta_eccentricity": 2.675e-05,
        "meta_inclination": 0.013,
        "meta_ra_of_asc_node": 59.1201,
        "meta_arg_of_pericenter": 354.8416,
        "meta_mean_anomaly": 158.0939,
        "meta_ephemeris_type": 0,
        "meta_classification_type": "U",
        "meta_norad_cat_id": 42741,
        "meta_element_set_no": 999,
        "meta_rev_at_epoch": 3188,
        "meta_bstar": 0,
        "meta_mean_motion_dot": 0,
        "meta_mean_motion_ddot": 0,
        "tle_line1": "1 42741U 17029B   25348.87858381  .00000000  00000+0  00000+0 0  9995",
        "tle_line2": "2 42741   0.0130  59.1201 0000267 354.8416 158.0939  1.00269602 31889"
      },
      "geometry": {
        "type": "Point",
        "coordinates": [
          120.97556684450643,
          0.015819038156107065
        ]
      }
    }
  ]
}